[{"OBJECT_NAME":"GENMAT-1","OBJECT_ID":"2023-174W","EPOCH":"2026-03-09T18:03:23.351040","MEAN_MOTION":15.32594666,"ECCENTRICITY":0.00074416,"INCLINATION":97.3728,"RA_OF_ASC_NODE":146.8236,"ARG_OF_PERICENTER":169.2515,"MEAN_ANOMALY":190.8888,"EPHEMERIS_TYPE":0,"CLASSIFICATION_TYPE":"U","NORAD_CAT_ID":58276,"ELEMENT_SET_NO":999,"REV_AT_EPOCH":12973,"BSTAR":0.00042157222,"MEAN_MOTION_DOT":0.0001321,"MEAN_MOTION_DDOT":0},{"OBJECT_NAME":"STARLINK-31019","OBJECT_ID":"2023-192K","EPOCH":"2026-03-09T22:33:21.694752","MEAN_MOTION":15.30131457,"ECCENTRICITY":7.979e-5,"INCLINATION":53.1607,"RA_OF_ASC_NODE":61.578,"ARG_OF_PERICENTER":106.0486,"MEAN_ANOMALY":254.0603,"EPHEMERIS_TYPE":0,"CLASSIFICATION_TYPE":"U","NORAD_CAT_ID":58540,"ELEMENT_SET_NO":999,"REV_AT_EPOCH":12602,"BSTAR":0.00050561276,"MEAN_MOTION_DOT":0.00014614,"MEAN_MOTION_DDOT":0}]
